[{"OBJECT_NAME":"STARLINK-1090","OBJECT_ID":"2020-001BG","EPOCH":"2026-03-10T00:00:02.999808","MEAN_MOTION":15.20362352,"ECCENTRICITY":0.00018062,"INCLINATION":53.1145,"RA_OF_ASC_NODE":304.836,"ARG_OF_PERICENTER":72.8896,"MEAN_ANOMALY":4.5449,"EPHEMERIS_TYPE":0,"CLASSIFICATION_TYPE":"U","NORAD_CAT_ID":44968,"ELEMENT_SET_NO":999,"REV_AT_EPOCH":574,"BSTAR":0.056176285,"MEAN_MOTION_DOT":0.01344146,"MEAN_MOTION_DDOT":0},{"OBJECT_NAME":"NETSAT-3","OBJECT_ID":"2020-068V","EPOCH":"2026-03-09T21:45:04.914432","MEAN_MOTION":15.39054188,"ECCENTRICITY":0.00049805,"INCLINATION":97.8682,"RA_OF_ASC_NODE":67.7818,"ARG_OF_PERICENTER":358.0585,"MEAN_ANOMALY":2.0638,"EPHEMERIS_TYPE":0,"CLASSIFICATION_TYPE":"U","NORAD_CAT_ID":46505,"ELEMENT_SET_NO":999,"REV_AT_EPOCH":30039,"BSTAR":0.00060371861,"MEAN_MOTION_DOT":0.00023315,"MEAN_MOTION_DDOT":0}]
